OBJECT_NAME,OBJECT_ID,EPOCH,MEAN_MOTION,ECCENTRICITY,INCLINATION,RA_OF_ASC_NODE,ARG_OF_PERICENTER,MEAN_ANOMALY,EPHEMERIS_TYPE,CLASSIFICATION_TYPE,NORAD_CAT_ID,ELEMENT_SET_NO,REV_AT_EPOCH,BSTAR,MEAN_MOTION_DOT,MEAN_MOTION_DDOT
KUIPER-00614,2026-151L,2026-07-22T07:50:28.791168,15.38250746,.00018565,51.8787,145.7868,70.9131,289.2057,0,U,69773,999,311,.65843179E-3,.24895E-3,0
KUIPER-00615,2026-151M,2026-07-22T20:00:01.999872,15.34729656,.00064497,51.8778,143.5052,175.8194,33.8560,0,U,69774,999,202,-.17230759E-1,-.548997E-2,0
KUIPER-00616,2026-151N,2026-07-22T07:47:09.464640,15.38470998,.0002494,51.8783,145.7754,136.6943,223.4241,0,U,69775,999,311,.79913533E-3,.30543E-3,0
KUIPER-00617,2026-151P,2026-07-22T07:57:00.334368,15.37923317,.00037634,51.8790,145.8179,158.8968,201.2175,0,U,69776,999,311,.67016854E-3,.25078E-3,0
KUIPER-00619,2026-151Q,2026-07-22T20:11:09.369024,15.38713935,.00017375,51.8803,143.2353,87.3413,272.7773,0,U,69777,999,319,.12900232E-2,.50073E-3,0
KUIPER-00621,2026-151R,2026-07-22T07:47:23.946144,15.38401696,.00020307,51.8790,145.7753,115.3412,244.7786,0,U,69778,999,311,.66445906E-3,.25253E-3,0
KUIPER-00622,2026-151S,2026-07-22T20:00:01.999872,15.35841663,.00072015,51.8736,143.5242,174.8861,21.1700,0,U,69779,999,382,-.33574062E-1,-.1091443E-1,0
KUIPER-00623,2026-151T,2026-07-22T20:32:22.018560,15.37510299,.00052293,51.8769,143.3349,154.3871,205.7376,0,U,69780,999,319,.84970746E-3,.31506E-3,0
KUIPER-00626,2026-151U,2026-07-22T19:35:52.709856,15.34561076,.00093418,51.8723,143.8094,190.5652,169.5139,0,U,69781,999,318,.65041256E-3,.2182E-3,0
KUIPER-00627,2026-151V,2026-07-22T07:09:50.958144,15.34387789,.00106274,51.8698,146.3318,196.8605,163.2029,0,U,69782,999,310,.6363362E-3,.21227E-3,0
KUIPER-00629,2026-151W,2026-07-22T20:00:01.999872,15.25475257,.00061054,51.8822,143.9298,189.2309,191.5252,0,U,69783,999,351,-.67392101E-1,-.1576952E-1,0
KUIPER-00631,2026-151X,2026-07-22T20:00:01.999872,15.25318951,.0007931,51.8786,143.8826,189.2917,201.1062,0,U,69784,999,130,-.49127797E-1,-.1144446E-1,0
KUIPER-00634,2026-151Y,2026-07-22T20:26:37.267008,15.37899454,.0003679,51.8770,143.3085,157.8950,202.2196,0,U,69785,999,319,.9136839E-3,.34348E-3,0
KUIPER-00639,2026-151Z,2026-07-22T19:31:24.565728,15.34572576,.00097242,51.8692,143.7854,185.7008,174.3868,0,U,69786,999,318,.5149136E-3,.17192E-3,0
KUIPER-00641,2026-151AA,2026-07-22T07:12:40.257216,15.33988190,.00116071,51.8685,146.3427,193.7001,166.3671,0,U,69787,999,310,-.8772709E-3,-.29618E-3,0
KUIPER-00644,2026-151AB,2026-07-22T22:23:43.353024,15.36512987,.00078022,51.8734,143.0965,186.8258,173.2624,0,U,69788,999,319,-.38080213E-3,-.1416E-3,0
KUIPER-00646,2026-151AC,2026-07-22T19:27:10.745856,15.35308454,.00097984,51.8703,143.7680,190.8345,169.2432,0,U,69789,999,318,.46821225E-3,.15972E-3,0
KUIPER-00647,2026-151AD,2026-07-22T19:36:45.440640,15.34705962,.00101227,51.8664,143.8059,182.3706,177.7233,0,U,69790,999,318,.76475042E-3,.25863E-3,0
KUIPER-00662,2026-151AE,2026-07-22T20:00:01.999872,15.26882228,.00086175,51.8779,143.8590,178.1934,190.8161,0,U,69791,999,220,-.27896974E-1,-.6923E-2,0
LINK,2026-152A,2026-07-21T11:36:42.787584,15.67728585,.00235185,20.5930,278.9369,85.5169,274.7964,0,U,69792,999,284,.87541489E-3,.104063E-2,0
2026-152B,2026-152B,2026-07-22T12:33:56.409984,15.65358949,.00231723,20.5973,271.3332,93.3702,266.9396,0,U,69793,999,300,.53785725E-3,.58102E-3,0
ISS OBJECT YJ,1998-067YJ,2026-07-22T18:52:02.531424,15.50392450,.00076353,51.6314,123.7839,337.0994,22.9653,0,U,69794,999,317,.62674396E-3,.36011E-3,0
ISS OBJECT YK,1998-067YK,2026-07-22T21:46:29.480160,15.51373282,.00063017,51.6316,123.0937,342.7221,17.3553,0,U,69795,999,319,.11665799E-2,.70112E-3,0
ISS OBJECT YL,1998-067YL,2026-07-22T00:11:01.329792,15.50892192,.0008539,51.6317,127.5857,335.7584,24.3003,0,U,69796,999,304,.86060866E-3,.50624E-3,0
ISS OBJECT YM,1998-067YM,2026-07-20T01:46:35.225184,15.50880460,.0009481,51.6311,137.1739,319.6197,40.4088,0,U,69797,999,273,.86101476E-3,.50643E-3,0
ISS OBJECT YN,1998-067YN,2026-07-22T00:13:03.456192,15.50596645,.00090855,51.6321,127.5954,339.1650,20.8968,0,U,69798,999,305,.57201763E-3,.3307E-3,0
PROVES-ELECTRA,1998-067YP,2026-07-22T00:10:20.067744,15.50922619,.0009554,51.6319,127.5825,327.4640,32.5760,0,U,69799,999,304,.84214776E-3,.49593E-3,0
QIANFAN-201,2026-153A,2026-07-22T21:39:57.657024,14.22096175,.0008627,88.9931,358.1603,152.9700,207.1942,0,U,69800,999,264,.16197824E-3,.373E-5,0
QIANFAN-202,2026-153B,2026-07-22T20:51:58.419360,14.18845343,.00075964,88.9931,358.1741,152.4985,207.6608,0,U,69801,999,263,.87365026E-4,.196E-5,0
QIANFAN-203,2026-153C,2026-07-22T20:36:40.728672,14.19389732,.00081656,88.9930,358.1724,154.3025,205.8572,0,U,69802,999,263,.60699605E-4,.142E-5,0
