KUIPER-00614            
1 69773U 26151L   26203.32672212  .00024895  00000+0  65843-3 0  9991
2 69773  51.8787 145.7868 0001856  70.9131 289.2057 15.38250746  3119
KUIPER-00615            
1 69774U 26151M   26203.83335648 -.00548997  00000+0 -17231-1 0  9999
2 69774  51.8778 143.5052 0006449 175.8194  33.8560 15.34729656  2026
KUIPER-00616            
1 69775U 26151N   26203.32441510  .00030543  00000+0  79914-3 0  9999
2 69775  51.8783 145.7754 0002494 136.6943 223.4241 15.38470998  3119
KUIPER-00617            
1 69776U 26151P   26203.33125387  .00025078  00000+0  67017-3 0  9990
2 69776  51.8790 145.8179 0003763 158.8968 201.2175 15.37923317  3110
KUIPER-00619            
1 69777U 26151Q   26203.84108066  .00050073  00000+0  12900-2 0  9995
2 69777  51.8803 143.2353 0001737  87.3413 272.7773 15.38713935  3191
KUIPER-00621            
1 69778U 26151R   26203.32458271  .00025253  00000+0  66446-3 0  9992
2 69778  51.8790 145.7753 0002030 115.3412 244.7786 15.38401696  3119
KUIPER-00622            
1 69779U 26151S   26203.83335648 -.01091443  00000+0 -33574-1 0  9992
2 69779  51.8736 143.5242 0007201 174.8861  21.1700 15.35841663  3822
KUIPER-00623            
1 69780U 26151T   26203.85581040  .00031506  00000+0  84971-3 0  9995
2 69780  51.8769 143.3349 0005229 154.3871 205.7376 15.37510299  3197
KUIPER-00626            
1 69781U 26151U   26203.81658229  .00021820  00000+0  65041-3 0  9991
2 69781  51.8723 143.8094 0009341 190.5652 169.5139 15.34561076  3187
KUIPER-00627            
1 69782U 26151V   26203.29850646  .00021227  00000+0  63634-3 0  9998
2 69782  51.8698 146.3318 0010627 196.8605 163.2029 15.34387789  3100
KUIPER-00629            
1 69783U 26151W   26203.83335648 -.01576952  00000+0 -67392-1 0  9995
2 69783  51.8822 143.9298 0006105 189.2309 191.5252 15.25475257  3518
KUIPER-00631            
1 69784U 26151X   26203.83335648 -.01144446  00000+0 -49128-1 0  9992
2 69784  51.8786 143.8826 0007931 189.2917 201.1062 15.25318951  1306
KUIPER-00634            
1 69785U 26151Y   26203.85182022  .00034348  00000+0  91368-3 0  9992
2 69785  51.8770 143.3085 0003679 157.8950 202.2196 15.37899454  3199
KUIPER-00639            
1 69786U 26151Z   26203.81347877  .00017192  00000+0  51491-3 0  9991
2 69786  51.8692 143.7854 0009724 185.7008 174.3868 15.34572576  3186
KUIPER-00641            
1 69787U 26151AA  26203.30046594 -.00029618  00000+0 -87727-3 0  9997
2 69787  51.8685 146.3427 0011607 193.7001 166.3671 15.33988190  3106
KUIPER-00644            
1 69788U 26151AB  26203.93314066 -.00014160  00000+0 -38080-3 0  9993
2 69788  51.8734 143.0965 0007802 186.8258 173.2624 15.36512987  3196
KUIPER-00646            
1 69789U 26151AC  26203.81054104  .00015972  00000+0  46821-3 0  9997
2 69789  51.8703 143.7680 0009798 190.8345 169.2432 15.35308454  3184
KUIPER-00647            
1 69790U 26151AD  26203.81719260  .00025863  00000+0  76475-3 0  9998
2 69790  51.8664 143.8059 0010122 182.3706 177.7233 15.34705962  3180
KUIPER-00662            
1 69791U 26151AE  26203.83335648 -.00692300  00000+0 -27897-1 0  9995
2 69791  51.8779 143.8590 0008617 178.1934 190.8161 15.26882228  2200
LINK                    
1 69792U 26152A   26202.48382856  .00104063  00000+0  87541-3 0  9996
2 69792  20.5930 278.9369 0023518  85.5169 274.7964 15.67728585  2848
2026-152B               
1 69793U 26152B   26203.52356956  .00058102  00000+0  53786-3 0  9991
2 69793  20.5973 271.3332 0023172  93.3702 266.9396 15.65358949  3001
ISS OBJECT YJ           
1 69794U 98067YJ  26203.78614041  .00036011  00000+0  62674-3 0  9997
2 69794  51.6314 123.7839 0007635 337.0994  22.9653 15.50392450  3178
ISS OBJECT YK           
1 69795U 98067YK  26203.90728565  .00070112  00000+0  11666-2 0  9993
2 69795  51.6316 123.0937 0006301 342.7221  17.3553 15.51373282  3190
ISS OBJECT YL           
1 69796U 98067YL  26203.00765428  .00050624  00000+0  86061-3 0  9992
2 69796  51.6317 127.5857 0008539 335.7584  24.3003 15.50892192  3048
ISS OBJECT YM           
1 69797U 98067YM  26201.07401881  .00050643  00000+0  86101-3 0  9994
2 69797  51.6311 137.1739 0009481 319.6197  40.4088 15.50880460  2739
ISS OBJECT YN           
1 69798U 98067YN  26203.00906778  .00033070  00000+0  57202-3 0  9990
2 69798  51.6321 127.5954 0009085 339.1650  20.8968 15.50596645  3058
PROVES-ELECTRA          
1 69799U 98067YP  26203.00717671  .00049593  00000+0  84215-3 0  9994
2 69799  51.6319 127.5825 0009554 327.4640  32.5760 15.50922619  3046
QIANFAN-201             
1 69800U 26153A   26203.90275066  .00000373  00000+0  16198-3 0  9998
2 69800  88.9931 358.1603 0008627 152.9700 207.1942 14.22096175  2640
QIANFAN-202             
1 69801U 26153B   26203.86942615  .00000196  00000+0  87365-4 0  9993
2 69801  88.9931 358.1741 0007596 152.4985 207.6608 14.18845343  2635
QIANFAN-203             
1 69802U 26153C   26203.85880473  .00000142  00000+0  60700-4 0  9991
2 69802  88.9930 358.1724 0008165 154.3025 205.8572 14.19389732  2631
